NORAD_CAT_ID,OBJECT_NAME,OBJECT_TYPE,EPOCH,MEAN_MOTION,ECCENTRICITY,INCLINATION,RA_OF_ASC_NODE,ARG_OF_PERICENTER,MEAN_ANOMALY,BSTAR,MEAN_MOTION_DOT,MEAN_MOTION_DDOT,TLE_LINE0,TLE_LINE1,TLE_LINE2,SEMIMAJOR_AXIS,PERIOD,APOGEE,PERIGEE,DECAYED
53568.0,STARLINK-4583,PAYLOAD,2024-06-10 08:55:03,15.08836877,0.0001219,53.2154,35.0242,84.6289,275.4842,-3.4368e-05,-8.35e-06,0.0,0 STARLINK-4583,1 53568U 22101AT  24162.37156502 -.00000835  00000-0 -34368-4 0  9993,2 53568  53.2154  35.0242 0001219  84.6289 275.4842 15.08836877100922,6917.89,95.438,540.598,538.912,0.0
53568.0,STARLINK-4583,PAYLOAD,2024-06-10 21:38:08,15.08837734,0.0001205,53.2149,32.6453,86.6538,273.4592,6.0541e-05,6.76e-06,0.0,0 STARLINK-4583,1 53568U 22101AT  24162.90148679  .00000676  00000-0  60541-4 0  9991,2 53568  53.2149  32.6453 0001205  86.6538 273.4592 15.08837734101000,6917.887,95.438,540.586,538.919,0.0
53568.0,STARLINK-4583,PAYLOAD,2024-06-11 08:45:50,15.08845702,0.0001218,53.2168,30.5642,87.9071,272.206,9.986e-05,1.302e-05,0.0,0 STARLINK-4583,1 53568U 22101AT  24163.36516204  .00001302  00000-0  99860-4 0  9998,2 53568  53.2168  30.5642 0001218  87.9071 272.2060 15.08845702101076,6917.863,95.437,540.571,538.885,0.0
53568.0,STARLINK-4583,PAYLOAD,2024-06-12 00:39:41,15.0885273,0.0001387,53.2175,27.5881,101.8758,258.239,0.00019121,2.758e-05,0.0,0 STARLINK-4583,1 53568U 22101AT  24164.02755819  .00002758  00000-0  19121-3 0  9996,2 53568  53.2175  27.5881 0001387 101.8758 258.2390 15.08852730100483,6917.841,95.437,540.666,538.747,0.0
53568.0,STARLINK-4583,PAYLOAD,2024-06-12 21:19:42,15.08831506,0.0001599,53.218,23.7225,80.0862,280.0311,-0.00011202,-2.07e-05,0.0,0 STARLINK-4583,1 53568U 22101AT  24164.88869094 -.00002070  00000-0 -11202-3 0  9992,2 53568  53.2180  23.7225 0001599  80.0862 280.0311 15.08831506100617,6917.906,95.438,540.878,538.665,0.0
53568.0,STARLINK-4583,PAYLOAD,2024-06-13 00:30:29,15.08832674,0.0001671,53.2183,23.1265,98.1732,261.945,-7.3263e-05,-1.454e-05,0.0,0 STARLINK-4583,1 53568U 22101AT  24165.02117130 -.00001454  00000-0 -73263-4 0  9997,2 53568  53.2183  23.1265 0001671  98.1732 261.9450 15.08832674101323,6917.903,95.438,540.924,538.612,0.0
53568.0,STARLINK-4583,PAYLOAD,2024-06-13 21:10:29,15.08843991,0.000138,53.2176,19.2625,94.4959,265.6191,4.9074e-05,4.93e-06,0.0,0 STARLINK-4583,1 53568U 22101AT  24165.88228557  .00000493  00000-0  49074-4 0  9990,2 53568  53.2176  19.2625 0001380  94.4959 265.6191 15.08843991101459,6917.868,95.437,540.688,538.779,0.0
53568.0,STARLINK-4583,PAYLOAD,2024-06-14 06:42:48,15.08844097,0.0001317,53.2169,17.4784,86.0345,274.0797,0.00016431,2.328e-05,0.0,0 STARLINK-4583,1 53568U 22101AT  24166.27972666  .00002328  00000-0  16431-3 0  9990,2 53568  53.2169  17.4784 0001317  86.0345 274.0797 15.08844097101514,6917.868,95.437,540.644,538.822,0.0
53568.0,STARLINK-4583,PAYLOAD,2024-06-14 21:01:16,15.08838187,0.0001374,53.2175,14.8075,101.2514,258.8632,9.0054e-05,1.146e-05,0.0,0 STARLINK-4583,1 53568U 22101AT  24166.87589058  .00001146  00000-0  90054-4 0  9996,2 53568  53.2175  14.8075 0001374 101.2514 258.8632 15.08838187101607,6917.886,95.438,540.701,538.8,0.0
53568.0,STARLINK-4583,PAYLOAD,2024-06-15 06:33:35,15.08840112,0.00013,53.217,13.0227,92.713,267.4011,4.1146e-05,3.67e-06,0.0,0 STARLINK-4583,1 53568U 22101AT  24167.27332899  .00000367  00000-0  41146-4 0  9992,2 53568  53.2170  13.0227 0001300  92.7130 267.4011 15.08840112101663,6917.88,95.438,540.644,538.846,0.0
53568.0,STARLINK-4583,PAYLOAD,2024-06-15 20:52:03,15.08845849,0.0001382,53.2176,10.3462,96.4874,263.6276,7.0333e-05,8.32e-06,0.0,0 STARLINK-4583,1 53568U 22101AT  24167.86948709  .00000832  00000-0  70333-4 0  9997,2 53568  53.2176  10.3462 0001382  96.4874 263.6276 15.08845849101759,6917.863,95.437,540.684,538.771,0.0
53568.0,STARLINK-4583,PAYLOAD,2024-06-16 06:24:22,15.08845068,0.0001376,53.2179,8.5619,88.2715,271.8435,0.00012682,1.731e-05,0.0,0 STARLINK-4583,1 53568U 22101AT  24168.26692689  .00001731  00000-0  12682-3 0  9996,2 53568  53.2179   8.5619 0001376  88.2715 271.8435 15.08845068101819,6917.865,95.437,540.682,538.778,0.0
53568.0,STARLINK-4583,PAYLOAD,2024-06-16 22:18:13,15.08842991,0.0001432,53.2182,5.5855,78.9353,281.1801,1.8077e-05,0.0,0.0,0 STARLINK-4583,1 53568U 22101AT  24168.92932817  .00000000  00000-0  18077-4 0  9992,2 53568  53.2182   5.5855 0001432  78.9353 281.1801 15.08842991101913,6917.871,95.437,540.727,538.746,0.0
53568.0,STARLINK-4583,PAYLOAD,2024-06-17 20:33:38,15.08839741,0.0001418,53.2187,1.4234,80.9714,279.1438,-7.9691e-05,-1.556e-05,0.0,0 STARLINK-4583,1 53568U 22101AT  24169.85669361 -.00001556  00000-0 -79691-4 0  9994,2 53568  53.2187   1.4234 0001418  80.9714 279.1438 15.08839741102050,6917.881,95.438,540.727,538.765,0.0
53568.0,STARLINK-4583,PAYLOAD,2024-06-18 06:05:56,15.08844174,0.0001314,53.2184,359.6394,88.8613,271.2529,-6.0854e-05,-1.256e-05,0.0,0 STARLINK-4583,1 53568U 22101AT  24170.25412852 -.00001256  00000-0 -60854-4 0  9999,2 53568  53.2184 359.6394 0001314  88.8613 271.2529 15.08844174101422,6917.868,95.437,540.642,538.824,0.0
53568.0,STARLINK-4583,PAYLOAD,2024-06-18 18:49:02,15.08821317,0.0001285,53.2186,357.2575,96.4265,263.6873,0.00035175,5.312e-05,0.0,0 STARLINK-4583,1 53568U 22101AT  24170.78405589  .00005312  00000-0  35175-3 0  9998,2 53568  53.2186 357.2575 0001285  96.4265 263.6873 15.08821317101504,6917.937,95.439,540.691,538.914,0.0
53568.0,STARLINK-4583,PAYLOAD,2024-06-18 21:59:47,15.08849144,0.0001392,53.2192,356.663,98.8791,261.2359,1.4233e-05,-6.1e-07,0.0,0 STARLINK-4583,1 53568U 22101AT  24170.91652238 -.00000061  00000-0  14233-4 0  9998,2 53568  53.2192 356.6630 0001392  98.8791 261.2359 15.08849144102215,6917.852,95.437,540.68,538.754,0.0
53568.0,STARLINK-4583,PAYLOAD,2024-06-19 05:56:43,15.08837528,0.0001473,53.2197,355.174,96.289,263.827,-7.4003e-06,-4.06e-06,0.0,0 STARLINK-4583,1 53568U 22101AT  24171.24772945 -.00000406  00000-0 -74003-5 0  9999,2 53568  53.2197 355.1740 0001473  96.2890 263.8270 15.08837528101579,6917.888,95.438,540.772,538.734,0.0
53568.0,STARLINK-4583,PAYLOAD,2024-06-19 21:50:35,15.08835431,0.0001336,53.2191,352.2026,103.4063,256.7078,-2.735e-05,-7.23e-06,0.0,0 STARLINK-4583,1 53568U 22101AT  24171.91013248 -.00000723  00000-0 -27350-4 0  9991,2 53568  53.2191 352.2026 0001336 103.4063 256.7078 15.08835431102365,6917.894,95.438,540.684,538.835,0.0
53568.0,STARLINK-4583,PAYLOAD,2024-06-20 21:41:22,15.08840484,0.0001458,53.2194,347.7416,105.1259,254.9894,-5.8121e-05,-1.213e-05,0.0,0 STARLINK-4583,1 53568U 22101AT  24172.90373171 -.00001213  00000-0 -58121-4 0  9990,2 53568  53.2194 347.7416 0001458 105.1259 254.9894 15.08840484101821,6917.879,95.438,540.753,538.735,0.0
53568.0,STARLINK-4583,PAYLOAD,2024-06-21 11:59:51,15.0883028,0.0001265,53.2178,345.0663,99.0832,261.0303,1.5967e-05,-3.4e-07,0.0,0 STARLINK-4583,1 53568U 22101AT  24173.49989874 -.00000034  00000-0  15967-4 0  9998,2 53568  53.2178 345.0663 0001265  99.0832 261.0303 15.08830280101919,6917.91,95.438,540.65,538.9,0.0
53568.0,STARLINK-4583,PAYLOAD,2024-06-21 18:21:23,15.08836042,0.0001448,53.2179,343.8764,112.0897,248.0249,9.8155e-06,-1.32e-06,0.0,0 STARLINK-4583,1 53568U 22101AT  24173.76485593 -.00000132  00000-0  98155-5 0  9997,2 53568  53.2179 343.8764 0001448 112.0897 248.0249 15.08836042102645,6917.892,95.438,540.759,538.756,0.0
53568.0,STARLINK-4583,PAYLOAD,2024-06-22 11:50:38,15.08835469,0.0001338,53.2181,340.6049,91.8751,268.2394,4.3817e-06,-2.18e-06,0.0,0 STARLINK-4583,1 53568U 22101AT  24174.49349922 -.00000218  00000-0  43817-5 0  9993,2 53568  53.2181 340.6049 0001338  91.8751 268.2394 15.08835469102759,6917.894,95.438,540.685,538.834,0.0
53568.0,STARLINK-4583,PAYLOAD,2024-06-22 16:36:47,15.08838975,0.000138,53.2185,339.713,92.2048,267.9102,3.5504e-05,2.77e-06,0.0,0 STARLINK-4583,1 53568U 22101AT  24174.69221671  .00000277  00000-0  35504-4 0  9992,2 53568  53.2185 339.7130 0001380  92.2048 267.9102 15.08838975102099,6917.884,95.438,540.703,538.794,0.0
53568.0,STARLINK-4583,PAYLOAD,2024-06-23 18:02:58,15.08837268,0.0001464,53.2186,334.9551,72.5279,287.5873,2.1439e-05,5.3e-07,0.0,0 STARLINK-4583,1 53568U 22101AT  24175.75206041  .00000053  00000-0  21439-4 0  9998,2 53568  53.2186 334.9551 0001464  72.5279 287.5873 15.08837268102259,6917.889,95.438,540.767,538.741,0.0
53568.0,STARLINK-4583,PAYLOAD,2024-06-24 14:42:58,15.08839357,0.0001362,53.2179,331.0921,63.2734,296.8397,1.286e-06,-2.67e-06,0.0,0 STARLINK-4583,1 53568U 22101AT  24176.61318024 -.00000267  00000-0  12860-5 0  9996,2 53568  53.2179 331.0921 0001362  63.2734 296.8397 15.08839357103076,6917.882,95.438,540.69,538.805,0.0
53568.0,STARLINK-4583,PAYLOAD,2024-06-24 16:18:21,15.08840058,0.0001469,53.218,330.7951,59.7819,300.3318,1.5126e-05,-4.7e-07,0.0,0 STARLINK-4583,1 53568U 22101AT  24176.67941985 -.00000047  00000-0  15126-4 0  9993,2 53568  53.2180 330.7951 0001469  59.7819 300.3318 15.08840058103084,6917.88,95.438,540.761,538.729,0.0
53568.0,STARLINK-4583,PAYLOAD,2024-06-25 14:33:45,15.08838338,0.0001805,53.2192,326.6262,56.926,303.1906,-2.3658e-06,-3.26e-06,0.0,0 STARLINK-4583,1 53568U 22101AT  24177.60678127 -.00000326  00000-0 -23658-5 0  9993,2 53568  53.2192 326.6262 0001805  56.9260 303.1906 15.08838338103227,6917.885,95.438,540.999,538.502,0.0
53568.0,STARLINK-4583,PAYLOAD,2024-06-25 17:44:31,15.0884211,0.0001846,53.2194,326.0301,57.7333,302.3837,2.89e-05,1.72e-06,0.0,0 STARLINK-4583,1 53568U 22101AT  24177.73925791  .00000172  00000-0  28900-4 0  9990,2 53568  53.2194 326.0301 0001846  57.7333 302.3837 15.08842110102554,6917.874,95.437,541.016,538.462,0.0
53568.0,STARLINK-4583,PAYLOAD,2024-06-26 03:16:50,15.08840832,0.0001475,53.2181,324.2542,69.7383,290.3768,8.3108e-06,-1.56e-06,0.0,0 STARLINK-4583,1 53568U 22101AT  24178.13669836 -.00000156  00000-0  83108-5 0  9995,2 53568  53.2181 324.2542 0001475  69.7383 290.3768 15.08840832103305,6917.878,95.438,540.763,538.722,0.0
